{
    "links": {
        "self": "http://www.neowsapp.com/rest/v1/neo/3754342?api_key=iIulBulltgU6a56xZRHN4H3l9WmuAYTsLGpBGhQ2"
    },
    "id": "3754342",
    "neo_reference_id": "3754342",
    "name": "(2016 MC1)",
    "designation": "2016 MC1",
    "nasa_jpl_url": "http://ssd.jpl.nasa.gov/sbdb.cgi?sstr=3754342",
    "absolute_magnitude_h": 23.1,
    "estimated_diameter": {
        "kilometers": {
            "estimated_diameter_min": 0.063760979,
            "estimated_diameter_max": 0.1425738833
        },
        "meters": {
            "estimated_diameter_min": 63.7609789875,
            "estimated_diameter_max": 142.5738833281
        },
        "miles": {
            "estimated_diameter_min": 0.0396192233,
            "estimated_diameter_max": 0.0885912765
        },
        "feet": {
            "estimated_diameter_min": 209.1895703015,
            "estimated_diameter_max": 467.7620993781
        }
    },
    "is_potentially_hazardous_asteroid": false,
    "close_approach_data": [
        {
            "close_approach_date": "2016-04-26",
            "close_approach_date_full": "2016-Apr-26 03:51",
            "epoch_date_close_approach": 1461642660000,
            "relative_velocity": {
                "kilometers_per_second": "9.9593686503",
                "kilometers_per_hour": "35853.727141072",
                "miles_per_hour": "22278.1117338511"
            },
            "miss_distance": {
                "astronomical": "0.098095209",
                "lunar": "38.159036301",
                "kilometers": "14674834.32360483",
                "miles": "9118519.217333454"
            },
            "orbiting_body": "Mars"
        },
        {
            "close_approach_date": "2016-07-15",
            "close_approach_date_full": "2016-Jul-15 02:42",
            "epoch_date_close_approach": 1468550520000,
            "relative_velocity": {
                "kilometers_per_second": "9.4397173061",
                "kilometers_per_hour": "33982.982301848",
                "miles_per_hour": "21115.7036419455"
            },
            "miss_distance": {
                "astronomical": "0.1083299947",
                "lunar": "42.1403679383",
                "kilometers": "16205936.464231289",
                "miles": "10069901.9713142282"
            },
            "orbiting_body": "Earth"
        },
        {
            "close_approach_date": "2108-06-29",
            "close_approach_date_full": "2108-Jun-29 05:11",
            "epoch_date_close_approach": 4370389860000,
            "relative_velocity": {
                "kilometers_per_second": "8.4433848504",
                "kilometers_per_hour": "30396.1854614831",
                "miles_per_hour": "18887.0075718865"
            },
            "miss_distance": {
                "astronomical": "0.0833897355",
                "lunar": "32.4386071095",
                "kilometers": "12474926.810663385",
                "miles": "7751560.075529313"
            },
            "orbiting_body": "Mars"
        }
    ],
    "orbital_data": {
        "orbit_id": "3",
        "orbit_determination_date": "2017-04-06 08:25:14",
        "first_observation_date": "2016-06-29",
        "last_observation_date": "2016-07-06",
        "data_arc_in_days": 7,
        "observations_used": 11,
        "orbit_uncertainty": "9",
        "minimum_orbit_intersection": ".0118346",
        "jupiter_tisserand_invariant": "4.496",
        "epoch_osculation": "2457569.5",
        "eccentricity": ".4532276985460021",
        "semi_major_axis": "1.464665160166605",
        "inclination": "4.143154541249269",
        "ascending_node_longitude": "270.5671000421108",
        "orbital_period": "647.4495802090117",
        "perihelion_distance": ".800838340483783",
        "perihelion_argument": "80.84470229226268",
        "aphelion_distance": "2.128491979849426",
        "perihelion_time": "2457628.921607854422",
        "mean_anomaly": "326.9599309637576",
        "mean_motion": ".5560278529855308",
        "equinox": "J2000",
        "orbit_class": {
            "orbit_class_type": "APO",
            "orbit_class_description": "Near-Earth asteroid orbits which cross the Earth’s orbit similar to that of 1862 Apollo",
            "orbit_class_range": "a (semi-major axis) > 1.0 AU; q (perihelion) < 1.017 AU"
        }
    },
    "is_sentry_object": false
}